STARLINK-37440          
1 69189U 26114H   26165.56997167  .00091362  00000+0  46129-3 0  9992
2 69189  53.1580 214.9506 0000950  78.6742 281.4388 15.80884634  4366
STARLINK-37282          
1 69190U 26114J   26165.54710652  .00166953  00000+0  94501-3 0  9990
2 69190  53.1583 215.5395 0001090 103.7937 256.3206 15.78094784  4351
STARLINK-37422          
1 69191U 26114K   26165.59722218 -.00818416  00000+0 -44736-2 0  9991
2 69191  53.1574 215.1381 0002161 162.7579 197.3518 15.81232876  4361
STARLINK-37424          
1 69192U 26114L   26165.54719780 -.00032452  00000+0 -18393-3 0  9996
2 69192  53.1580 215.5401 0001389  42.6449 317.4681 15.78033775  4357
STARLINK-36666          
1 69193U 26114M   26165.00002315  .00073457  00000+0  37330-3 0  9997
2 69193  53.1576 218.1310 0001063  91.0304 107.0057 15.80829294  4305
STARLINK-37355          
1 69194U 26114N   26165.59671362  .00117852  00000+0  59172-3 0  9992
2 69194  53.1574 215.1331 0000897  82.7028 277.4097 15.80902219  4369
STARLINK-37166          
1 69195U 26114P   26165.59521345  .00132502  00000+0  66340-3 0  9992
2 69195  53.1576 215.1225 0001293  65.1448 294.9709 15.80912392  4363
STARLINK-36933          
1 69196U 26114Q   26165.59596309  .00249656  00000+0  12294-2 0  9992
2 69196  53.1574 215.1274 0000975  73.5644 286.5486 15.80921771  4363
STARLINK-37419          
1 69197U 26114R   26165.59446266  .00103380  00000+0  52050-3 0  9997
2 69197  53.1575 215.1174 0001025  99.4886 260.6252 15.80896397  4365
STARLINK-37321          
1 69198U 26114S   26165.59371079  .00114891  00000+0  57698-3 0  9999
2 69198  53.1577 215.1126 0000901  93.4946 266.6180 15.80908437  4363
STARLINK-37406          
1 69199U 26114T   26165.59296298  .00221520  00000+0  10939-2 0  9993
2 69199  53.1573 215.1066 0001446  62.5085 297.6084 15.80939653  4360
STARLINK-37761          
1 69200U 26114U   26165.59221252  .00218416  00000+0  10792-2 0  9991
2 69200  53.1572 215.1012 0001094  77.7469 282.3676 15.80937204  4364
STARLINK-37754          
1 69201U 26114V   26165.59126712  .00142544  00000+0  71248-3 0  9999
2 69201  53.1573 215.0954 0000767  82.1936 277.9174 15.80915496  4367
STARLINK-37649          
1 69202U 26114W   26165.59071140  .00104469  00000+0  52587-3 0  9993
2 69202  53.1573 215.0911 0001040 112.4161 247.6972 15.80896975  4363
STARLINK-37604          
1 69203U 26114X   26165.58996099  .00137783  00000+0  68930-3 0  9996
2 69203  53.1574 215.0868 0000873  79.5926 280.5195 15.80911791  4368
STARLINK-37669          
1 69204U 26114Y   26165.58921015  .00127363  00000+0  63826-3 0  9995
2 69204  53.1573 215.0812 0000932 126.4316 233.6793 15.80910077  4367
STARLINK-37691          
1 69205U 26114Z   26165.59906936  .00095769  00000+0  54896-3 0  9993
2 69205  53.1578 215.1461 0001350  77.3011 282.8161 15.78065975  4365
STARLINK-37671          
1 69206U 26114AA  26165.58335648  .00027630  00000+0  16263-3 0  9997
2 69206  53.1583 215.1418 0001483  61.2064 251.1600 15.78030438  4397
STARLINK-37647          
1 69207U 26114AB  26165.58846122  .00134786  00000+0  67462-3 0  9990
2 69207  53.1575 215.0765 0001224  87.4750 272.6413 15.80911575  4368
STARLINK-37562          
1 69208U 26114AC  26165.59379703  .00125842  00000+0  71688-3 0  9996
2 69208  53.1588 215.1115 0001125  89.8070 270.3080 15.78089028  4365
STARLINK-37682          
1 69209U 26114AD  26165.58546068  .00124112  00000+0  62234-3 0  9992
2 69209  53.1574 215.0554 0001037  95.4741 264.6400 15.80908312  4368
STARLINK-37402          
1 69210U 26114AE  26165.58470949  .00146057  00000+0  72957-3 0  9993
2 69210  53.1574 215.0509 0001147  80.9454 279.1698 15.80917871  4362
STARLINK-37613          
1 69211U 26115A   26165.58335648  .00020482  00000+0  37732-3 0  9996
2 69211  97.2837 182.6725 0000942  97.5298  90.6405 15.49186267  4279
STARLINK-37713          
1 69212U 26115B   26165.58335648 -.02188621  00000+0 -40155-1 0  9992
2 69212  97.2841 182.7995 0001459  74.5356  44.8021 15.52698582  4276
STARLINK-37716          
1 69213U 26115C   26165.58335648 -.02527122  00000+0 -39397-1 0  9992
2 69213  97.2843 182.8473 0002057  90.2421 139.7508 15.57650564  4271
STARLINK-37620          
1 69214U 26115D   26165.58335648  .00011793  00000+0  21819-3 0  9993
2 69214  97.2838 182.6377 0000726 100.1837   8.4385 15.49187871  4272
STARLINK-37700          
1 69215U 26115E   26165.60188924  .00024624  00000+0  45287-3 0  9992
2 69215  97.2832 182.5679 0001272 105.1070 255.0322 15.49197771  4251
STARLINK-37766          
1 69216U 26115F   26165.58335648 -.00904338  00000+0 -11440-1 0  9990
2 69216  97.2844 182.8754 0001373  94.9828 204.4053 15.61917842  4274
STARLINK-37763          
1 69217U 26115G   26165.58335648 -.02740959  00000+0 -43189-1 0  9995
2 69217  97.2844 182.8386 0001912  91.0064 124.8121 15.57050321  4271
STARLINK-37724          
1 69218U 26115H   26165.58335648 -.02577854  00000+0 -28474-1 0  9998
2 69218  97.2841 182.8997 0001065  92.7329 270.0421 15.66550446  4278
