OBJECT_NAME,OBJECT_ID,EPOCH,MEAN_MOTION,ECCENTRICITY,INCLINATION,RA_OF_ASC_NODE,ARG_OF_PERICENTER,MEAN_ANOMALY,EPHEMERIS_TYPE,CLASSIFICATION_TYPE,NORAD_CAT_ID,ELEMENT_SET_NO,REV_AT_EPOCH,BSTAR,MEAN_MOTION_DOT,MEAN_MOTION_DDOT
STARLINK-37440,2026-114H,2026-06-14T13:40:45.552288,15.80884634,.00009507,53.1580,214.9506,78.6742,281.4388,0,U,69189,999,436,.46129261E-3,.91362E-3,0
STARLINK-37282,2026-114J,2026-06-14T13:07:50.003328,15.78094784,.00010904,53.1583,215.5395,103.7937,256.3206,0,U,69190,999,435,.94501304E-3,.166953E-2,0
STARLINK-37422,2026-114K,2026-06-14T14:19:59.996352,15.81232876,.00021611,53.1574,215.1381,162.7579,197.3518,0,U,69191,999,436,-.44736199E-2,-.818416E-2,0
STARLINK-37424,2026-114L,2026-06-14T13:07:57.889920,15.78033775,.00013891,53.1580,215.5401,42.6449,317.4681,0,U,69192,999,435,-.18392685E-3,-.32452E-3,0
STARLINK-36666,2026-114M,2026-06-14T00:00:02.000160,15.80829294,.00010632,53.1576,218.1310,91.0304,107.0057,0,U,69193,999,430,.37329711E-3,.73457E-3,0
STARLINK-37355,2026-114N,2026-06-14T14:19:16.056768,15.80902219,.00008976,53.1574,215.1331,82.7028,277.4097,0,U,69194,999,436,.59172195E-3,.117852E-2,0
STARLINK-37166,2026-114P,2026-06-14T14:17:06.442080,15.80912392,.0001293,53.1576,215.1225,65.1448,294.9709,0,U,69195,999,436,.66339914E-3,.132502E-2,0
STARLINK-36933,2026-114Q,2026-06-14T14:18:11.210976,15.80921771,.00009751,53.1574,215.1274,73.5644,286.5486,0,U,69196,999,436,.12294226E-2,.249656E-2,0
STARLINK-37419,2026-114R,2026-06-14T14:16:01.573824,15.80896397,.00010254,53.1575,215.1174,99.4886,260.6252,0,U,69197,999,436,.52050056E-3,.10338E-2,0
STARLINK-37321,2026-114S,2026-06-14T14:14:56.612256,15.80908437,.00009012,53.1577,215.1126,93.4946,266.6180,0,U,69198,999,436,.57697693E-3,.114891E-2,0
STARLINK-37406,2026-114T,2026-06-14T14:13:52.001472,15.80939653,.0001446,53.1573,215.1066,62.5085,297.6084,0,U,69199,999,436,.10939493E-2,.22152E-2,0
STARLINK-37761,2026-114U,2026-06-14T14:12:47.161728,15.80937204,.00010941,53.1572,215.1012,77.7469,282.3676,0,U,69200,999,436,.10791834E-2,.218416E-2,0
STARLINK-37754,2026-114V,2026-06-14T14:11:25.479168,15.80915496,.00007675,53.1573,215.0954,82.1936,277.9174,0,U,69201,999,436,.71248041E-3,.142544E-2,0
STARLINK-37649,2026-114W,2026-06-14T14:10:37.464960,15.80896975,.00010406,53.1573,215.0911,112.4161,247.6972,0,U,69202,999,436,.52586809E-3,.104469E-2,0
STARLINK-37604,2026-114X,2026-06-14T14:09:32.629536,15.80911791,.00008735,53.1574,215.0868,79.5926,280.5195,0,U,69203,999,436,.68929697E-3,.137783E-2,0
STARLINK-37669,2026-114Y,2026-06-14T14:08:27.756960,15.80910077,.00009329,53.1573,215.0812,126.4316,233.6793,0,U,69204,999,436,.63825581E-3,.127363E-2,0
STARLINK-37691,2026-114Z,2026-06-14T14:22:39.592704,15.78065975,.00013508,53.1578,215.1461,77.3011,282.8161,0,U,69205,999,436,.548962E-3,.95769E-3,0
STARLINK-37671,2026-114AA,2026-06-14T14:00:01.999872,15.78030438,.00014839,53.1583,215.1418,61.2064,251.1600,0,U,69206,999,439,.16263288E-3,.2763E-3,0
STARLINK-37647,2026-114AB,2026-06-14T14:07:23.049408,15.80911575,.00012245,53.1575,215.0765,87.4750,272.6413,0,U,69207,999,436,.6746184E-3,.134786E-2,0
STARLINK-37562,2026-114AC,2026-06-14T14:15:04.063392,15.78089028,.00011255,53.1588,215.1115,89.8070,270.3080,0,U,69208,999,436,.71688099E-3,.125842E-2,0
STARLINK-37682,2026-114AD,2026-06-14T14:03:03.802752,15.80908312,.0001037,53.1574,215.0554,95.4741,264.6400,0,U,69209,999,436,.62233853E-3,.124112E-2,0
STARLINK-37402,2026-114AE,2026-06-14T14:01:58.899936,15.80917871,.00011477,53.1574,215.0509,80.9454,279.1698,0,U,69210,999,436,.72957375E-3,.146057E-2,0
STARLINK-37613,2026-115A,2026-06-14T14:00:01.999872,15.49186267,.00009425,97.2837,182.6725,97.5298,90.6405,0,U,69211,999,427,.377317E-3,.20482E-3,0
STARLINK-37713,2026-115B,2026-06-14T14:00:01.999872,15.52698582,.00014592,97.2841,182.7995,74.5356,44.8021,0,U,69212,999,427,-.40155192E-1,-.2188621E-1,0
STARLINK-37716,2026-115C,2026-06-14T14:00:01.999872,15.57650564,.00020574,97.2843,182.8473,90.2421,139.7508,0,U,69213,999,427,-.39396929E-1,-.2527122E-1,0
STARLINK-37620,2026-115D,2026-06-14T14:00:01.999872,15.49187871,.00007263,97.2838,182.6377,100.1837,8.4385,0,U,69214,999,427,.21819256E-3,.11793E-3,0
STARLINK-37700,2026-115E,2026-06-14T14:26:43.230336,15.49197771,.00012725,97.2832,182.5679,105.1070,255.0322,0,U,69215,999,425,.45286943E-3,.24624E-3,0
STARLINK-37766,2026-115F,2026-06-14T14:00:01.999872,15.61917842,.0001373,97.2844,182.8754,94.9828,204.4053,0,U,69216,999,427,-.11440248E-1,-.904338E-2,0
STARLINK-37763,2026-115G,2026-06-14T14:00:01.999872,15.57050321,.0001912,97.2844,182.8386,91.0064,124.8121,0,U,69217,999,427,-.43188829E-1,-.2740959E-1,0
STARLINK-37724,2026-115H,2026-06-14T14:00:01.999872,15.66550446,.00010656,97.2841,182.8997,92.7329,270.0421,0,U,69218,999,427,-.28474212E-1,-.2577854E-1,0
